153P/Ikeya-Zhang,e,27.7459,93.0836,35.1747,50.79533,0.0027225,0.98963693,0.0000,03/08.8622/2002,2000,g  9.0,4.0
# From MPC 87068
154P/Brewington,e,17.6311,343.0237,47.8421,4.803463,0.0936208,0.67532192,236.6514,11/05.0/2020,2000,g  2.5,12.0
# From MPEC 2020-SI8
155P/Shoemaker,e,6.3960,97.1963,14.6451,6.583092,0.0583525,0.72632943,20.7755,11/05.0/2020,2000,g 10.0,4.8
# From MPEC 2020-UR0
156P/Russell-LINEAR,e,17.2632,35.3691,0.4277,3.459931,0.1531450,0.61472642,358.0285,11/05.0/2020,2000,g 15.5,2.0
# From MPC104795
157P/Tritton,e,12.6571,287.9141,155.0449,3.541328,0.1478955,0.56359874,260.9147,11/05.0/2020,2000,g 10.0,4.0
# From MPEC 2016-K18
158P/Kowal-LINEAR,e,7.9736,135.6250,179.8987,4.903001,0.0907844,0.02169773,335.4795,11/05.0/2020,2000,g  9.0,4.0
# From MPEC 2020-L06
159P/LONEOS,e,23.4622,54.9970,4.6066,5.855810,0.0695542,0.38154325,62.4626,11/05.0/2020,2000,g 10.0,4.0
# From MPEC 2019-TG9
160P/LINEAR,e,15.6159,333.3632,12.6788,3.773174,0.1344757,0.52623501,45.5417,11/05.0/2020,2000,g 15.5,2.0
# From MPC 75721
161P/Hartley-IRAS,e,95.7596,1.4978,46.9293,7.726439,0.0458918,0.83461000,258.3485,11/05.0/2020,2000,g  8.5,6.0
# From MPEC 2020-UR0
162P/Siding Spring,e,27.5549,30.9112,357.1330,3.090528,0.1814074,0.58287493,354.0465,11/05.0/2020,2000,g 12.0,4.0
# From MPEC 2020-HN5
163P/NEAT,e,12.7080,102.0899,349.6460,3.768895,0.1347048,0.45183420,61.6806,11/05.0/2020,2000,g 14.5,4.0
# From MPC106349
164P/Christensen,e,16.2542,88.3000,325.8454,3.657612,0.1408989,0.53979703,125.2176,11/05.0/2020,2000,g 11.0,4.0
# From MPC 75721
165P/LINEAR,e,15.8980,0.7904,126.1430,17.89407,0.0130209,0.61477374,97.3582,11/05.0/2020,2000,g 11.5,2.0
# From MPC 75722
166P/NEAT,e,15.3644,64.4798,321.4455,13.82672,0.0191701,0.38263260,129.4880,11/05.0/2020,2000,g  5.5,4.0
# From MPC 75722
167P/CINEOS,e,19.1212,295.6542,344.3137,16.19824,0.0151183,0.27270609,107.6448,11/05.0/2020,2000,g  9.5,2.0
# From MPC102101
168P/Hergenrother,e,21.6154,355.4578,14.9954,3.582182,0.1453726,0.62076442,66.5502,11/05.0/2020,2000,g 15.5,4.0
# From MPEC 2020-L06
169P/NEAT,e,11.2972,176.0954,218.0590,2.601330,0.2349151,0.76805819,216.2709,11/05.0/2020,2000,g 16.0,2.0
# From MPC 89012
170P/Christensen,e,10.1250,142.9216,225.6334,4.198176,0.1145811,0.30357537,257.1639,11/05.0/2020,2000,g 12.0,4.0
# From MPC102102
171P/Spahr,e,21.9340,101.6960,347.1055,3.556038,0.1469787,0.50161801,97.2263,11/05.0/2020,2000,g 13.5,4.0
# From MPEC 2020-UR0
172P/Yeung,e,11.2310,30.8962,209.4027,4.211590,0.1140342,0.20586365,151.9482,11/05.0/2020,2000,g 13.0,4.0
# From MPEC 2020-UR0
173P/Mueller,e,16.4965,100.4022,29.2894,5.702659,0.0723749,0.26062651,330.5007,11/05.0/2020,2000,g  7.5,4.0
# From MPC 92985
174P/Echeclus,e,4.3431,173.2446,162.9866,10.70989,0.0281207,0.45724932,56.8602,11/05.0/2020,2000,g  9.4,2.0
# From MPC114608
175P/Hergenrother,e,6.0795,123.5211,56.3717,3.434029,0.1548810,0.43285530,62.0629,11/05.0/2020,2000,g 14.0,4.0
# From MPC 89015
176P/LINEAR,e,0.2348,345.8807,35.1159,3.193167,0.1727316,0.19303819,230.6568,11/05.0/2020,2000,g 15.1,2.0
# From MPEC 2020-L06
177P/Barnard,e,31.3149,272.3157,60.1857,24.39679,0.0081791,0.95520861,42.3633,11/05.0/2020,2000,g 15.0,4.0
# From MPEC 2020-SI8
178P/Hug-Bell,e,11.0895,102.8749,297.7894,3.631219,0.1424379,0.48191354,15.8643,11/05.0/2020,2000,g 13.5,4.0
# From MPC 75723
179P/Jedicke,e,19.8992,115.5265,296.6292,5.939793,0.0680843,0.30622661,321.2371,11/05.0/2020,2000,g  2.5,8.0
# From MPC100284
180P/NEAT,e,16.8675,84.5619,94.8575,3.861943,0.1298659,0.35317668,232.7576,11/05.0/2020,2000,g 11.0,4.0
# From MPC 89012
181P/Shoemaker-Levy,e,17.4868,35.4122,336.2506,3.871418,0.1293895,0.70045326,304.3864,11/05.0/2020,2000,g 11.5,4.0
# From MPEC 2014-J10
182P/LONEOS,e,16.2277,72.6440,53.9268,2.955056,0.1940240,0.66234490,252.6051,11/05.0/2020,2000,g 18.0,4.0
# From MPC110085
183P/Korlevic-Juric,e,18.6963,5.0535,164.7590,4.525757,0.1023687,0.13899008,109.6265,11/05.0/2020,2000,g 12.5,2.0
# From MPEC 2020-UR0
184P/Lovas,e,4.5733,173.2547,186.4367,3.792917,0.1334271,0.55093550,1.3093,11/05.0/2020,2000,g 13.5,4.0
# From MPC109593
185P/Petriew,e,14.0012,214.0956,181.8791,3.099255,0.1806417,0.69903371,182.8991,11/05.0/2020,2000,g 15.0,4.0
# From MPEC 2020-UR0
186P/Garradd,e,28.6450,326.6865,283.1927,5.002506,0.0880892,0.12373201,49.1717,11/05.0/2020,2000,g  7.5,4.0
# From MPEC 2020-SI8
187P/LINEAR,e,13.6347,109.9240,132.0588,4.571812,0.1008257,0.15223675,91.0409,11/05.0/2020,2000,g  9.0,4.0
# From MPC106349
188P/LINEAR-Mueller,e,10.5218,358.9575,26.5755,4.375442,0.1076889,0.41545555,146.1148,11/05.0/2020,2000,g 11.5,4.0
# From MPC106349
189P/NEAT,e,20.0725,281.7384,16.2659,2.947077,0.1948125,0.58874193,231.0865,11/05.0/2020,2000,g 19.0,4.0
# From MPEC 2020-K19
190P/Mueller,e,2.1742,335.5767,50.2768,4.235125,0.1130849,0.52102456,189.1130,11/05.0/2020,2000,g 13.0,4.0
# From MPEC 2020-UR0
191P/McNaught,e,8.8429,98.2349,283.9835,3.635433,0.1421903,0.38598222,340.7982,11/05.0/2020,2000,g 13.0,4.0
# From MPC 75724
192P/Shoemaker-Levy,e,24.5438,51.6337,312.9280,6.477825,0.0597806,0.77297666,282.4797,11/05.0/2020,2000,g 15.0,4.0
# From MPC 92277
193P/LINEAR-NEAT,e,10.6869,335.1847,8.2208,3.576995,0.1456889,0.39415062,317.2242,11/05.0/2020,2000,g 14.0,4.0
# From MPC 98566
194P/LINEAR,e,11.2252,351.3860,130.9119,3.983675,0.1239590,0.57921928,211.8625,11/05.0/2020,2000,g 16.0,4.0
# From MPC 75724
195P/Hill,e,36.3386,243.1092,249.4054,6.500326,0.0594705,0.31324504,257.2698,11/05.0/2020,2000,g  8.5,4.0
# From MPC 92985
196P/Tichy,e,19.2971,24.1923,12.2825,3.799047,0.1331043,0.42856701,263.6178,11/05.0/2020,2000,g 13.5,4.0
# From MPC 94676
197P/LINEAR,e,25.5427,66.3915,188.7419,2.867506,0.2029774,0.62977447,205.2337,11/05.0/2020,2000,g 16.5,2.0
# From NK 1596
198P/ODAS,e,1.3387,358.2518,69.2309,3.599799,0.1443068,0.44319541,99.8939,11/05.0/2020,2000,g  9.0,4.0
# From MPC 75725
199P/Shoemaker,e,24.9339,92.3927,191.6125,5.896397,0.0688373,0.50607801,290.7720,11/05.0/2020,2000,g 10.0,4.0
# From MPC118098
200P/Larsen,e,12.1026,234.8008,134.0395,4.939116,0.0897905,0.33236701,41.7632,11/05.0/2020,2000,g  9.0,4.0
# From MPC 93588
201P/LONEOS,e,5.7380,19.7624,41.5068,3.355553,0.1603459,0.63716204,327.5077,11/05.0/2020,2000,g 14.0,4.0
# From MPC103849
202P/Scotti,e,2.0453,179.8809,276.7454,4.019628,0.1222997,0.27677150,202.3468,11/05.0/2020,2000,g 13.5,4.0
# From MPEC 2020-UR0
203P/Korlevic,e,2.9732,290.3481,154.8467,4.671470,0.0976166,0.31508054,23.9264,11/05.0/2020,2000,g 14.5,2.0
# From MPC 98566
204P/LINEAR-NEAT,e,6.6329,108.8188,355.2813,3.616398,0.1433143,0.48531833,253.7511,11/05.0/2020,2000,g 14.0,4.0
# From MPC 98566
205P/Giacobini,e,15.3033,179.6020,154.1988,3.542471,0.1478239,0.56793536,295.7766,11/05.0/2020,2000,g 13.0,4.0
# From MPC 75725
206P/Barnard-Boattini,e,33.6322,202.3489,189.4607,3.487885,0.1513076,0.55137160,341.9215,11/05.0/2020,2000,g 19.0,4.0
# From MPC 75725
207P/NEAT,e,10.1602,199.0314,272.4498,3.865797,0.1296718,0.76015709,206.4796,11/05.0/2020,2000,g 16.0,4.0
# From MPEC 2020-UR0
208P/McMillan,e,4.4096,36.3570,310.4108,4.046579,0.1210799,0.37351820,192.0040,11/05.0/2020,2000,g 12.5,4.0
# From MPC 90771
209P/LINEAR,e,21.2575,62.7694,152.4787,2.960160,0.1935224,0.67316670,98.9449,11/05.0/2020,2000,g 17.0,2.0
# From MPC105242
210P/Christensen,e,10.2620,93.8340,345.9054,3.165242,0.1750224,0.83320210,36.9438,11/05.0/2020,2000,g 13.5,4.0
# From MPC 96868
211P/Hill,e,18.9222,117.1403,4.1688,3.547671,0.1474990,0.34293974,256.9427,11/05.0/2020,2000,g 12.5,4.0
# From MPC104795
212P/NEAT,e,22.4491,98.5514,14.1129,3.881084,0.1289064,0.58963774,196.3912,11/05.0/2020,2000,g 17.0,2.0
# From MPC114608
213P/Van Ness,e,10.3827,311.3000,5.6177,3.348141,0.1608787,0.40815442,182.8833,11/05.0/2020,2000,g 10.5,4.0
# From MPC 92986
214P/LINEAR,e,15.1846,348.2569,190.2673,3.616680,0.1432976,0.48586811,261.0717,11/05.0/2020,2000,g 13.0,4.0
# From MPEC 2020-SI8
215P/NEAT,e,10.5815,56.6832,262.1053,4.327551,0.1094815,0.16692659,38.6003,11/05.0/2020,2000,g 11.0,4.0
# From MPC100284
216P/LINEAR,e,9.0537,359.8142,151.3531,3.869591,0.1294811,0.44583233,209.8216,11/05.0/2020,2000,g 13.0,4.0
# From MPC108598
217P/LINEAR,e,12.8645,125.4785,246.8432,3.951359,0.1254829,0.68845340,151.4493,11/05.0/2020,2000,g 12.0,4.0
# From MPEC 2020-K19
218P/LINEAR,e,2.7255,175.9748,59.7873,3.093975,0.1811043,0.62187680,5.8355,11/05.0/2020,2000,g 16.0,4.0
# From MPC100284
219P/LINEAR,e,11.5300,230.9868,107.3827,3.650510,0.1413103,0.35370865,191.0765,11/05.0/2020,2000,g 11.0,4.0
# From MPEC 2020-UR0
220P/McNaught,e,8.1285,150.1026,180.5345,3.116402,0.1791529,0.50187863,353.6160,11/05.0/2020,2000,g 15.0,4.0
# From MPC 93589
221P/LINEAR,e,11.4261,229.7132,40.0669,3.457221,0.1533251,0.49279934,297.4453,11/05.0/2020,2000,g 14.5,4.0
# From MPC 92277
222P/LINEAR,e,5.0957,6.7891,346.2348,2.899424,0.1996349,0.71448535,103.5811,11/05.0/2020,2000,g 20.0,4.0
# From MPEC 2020-HN5
223P/Skiff,e,27.0195,346.7724,37.8205,4.159254,0.1161933,0.41578458,75.2531,11/05.0/2020,2000,g 12.0,4.0
# From MPC 75727
224P/LINEAR-NEAT,e,13.3109,40.2930,16.7622,3.439847,0.1544882,0.40789982,252.7904,11/05.0/2020,2000,g 15.5,4.0
# From MPC 75727
225P/LINEAR,e,21.3540,14.1865,3.8661,3.650699,0.1412993,0.63779905,217.7843,11/05.0/2020,2000,g 18.0,4.0
# From MPC106349
226P/Pigott-LINEAR-Kowalski,e,44.0130,54.0030,341.0453,3.767699,0.1347689,0.52829788,205.2935,11/05.0/2020,2000,g 12.5,4.0
# From MPC102956
227P/Catalina-LINEAR,e,6.5071,49.1542,90.3355,3.565736,0.1463795,0.50754124,179.8845,11/05.0/2020,2000,g 16.5,2.0
# From MPEC 2020-L06
228P/LINEAR,e,7.9106,30.9814,115.2532,4.172607,0.1156360,0.17660765,27.7123,11/05.0/2020,2000,g 14.5,2.0
# From MPC106349
229P/Gibbs,e,26.0883,157.9026,223.9700,3.930796,0.1264688,0.37672956,159.8660,11/05.0/2020,2000,g 13.0,4.0
# From MPC110497
230P/LINEAR,e,15.5047,107.0258,313.5113,3.452435,0.1536440,0.54729578,283.3646,11/05.0/2020,2000,g 13.0,4.0
# From MPEC 2020-K19
231P/LINEAR-NEAT,e,12.3354,133.0168,43.0171,4.020925,0.1222405,0.24771340,62.1727,11/05.0/2020,2000,g 14.5,2.0
